CCSDS_OMM_VERS = 2.0
CREATION_DATE  = 
ORIGINATOR     = 

OBJECT_NAME    = CZ-2C R/B
OBJECT_ID      = 2022-132E
CENTER_NAME    = EARTH
REF_FRAME      = TEME
TIME_SYSTEM    = UTC
MEAN_ELEMENT_THEORY = SGP/SGP4

EPOCH          = 2026-01-22T05:52:14.106144
MEAN_MOTION    = 15.57783107
ECCENTRICITY   = .00165826
INCLINATION    = 97.2957
RA_OF_ASC_NODE = 24.3052
ARG_OF_PERICENTER = 262.1185
MEAN_ANOMALY   = 97.8189

EPHEMERIS_TYPE = 0
CLASSIFICATION_TYPE = U
NORAD_CAT_ID   = 54039
ELEMENT_SET_NO = 999
REV_AT_EPOCH   = 18313
BSTAR          = .57646703E-3
MEAN_MOTION_DOT = .43152E-3
MEAN_MOTION_DDOT = 0

CCSDS_OMM_VERS = 2.0
CREATION_DATE  = 
ORIGINATOR     = 

OBJECT_NAME    = GSLV R/B
OBJECT_ID      = 2022-138AN
CENTER_NAME    = EARTH
REF_FRAME      = TEME
TIME_SYSTEM    = UTC
MEAN_ELEMENT_THEORY = SGP/SGP4

EPOCH          = 2026-01-21T23:35:30.402528
MEAN_MOTION    = 14.96391729
ECCENTRICITY   = .00203462
INCLINATION    = 87.3843
RA_OF_ASC_NODE = 181.9943
ARG_OF_PERICENTER = 326.8568
MEAN_ANOMALY   = 33.1387

EPHEMERIS_TYPE = 0
CLASSIFICATION_TYPE = U
NORAD_CAT_ID   = 54149
ELEMENT_SET_NO = 999
REV_AT_EPOCH   = 17694
BSTAR          = .56634143E-3
MEAN_MOTION_DOT = .6467E-4
MEAN_MOTION_DDOT = 0

CCSDS_OMM_VERS = 2.0
CREATION_DATE  = 
ORIGINATOR     = 

OBJECT_NAME    = XRISM
OBJECT_ID      = 2023-137A
CENTER_NAME    = EARTH
REF_FRAME      = TEME
TIME_SYSTEM    = UTC
MEAN_ELEMENT_THEORY = SGP/SGP4

EPOCH          = 2026-01-22T06:33:28.459584
MEAN_MOTION    = 15.10869787
ECCENTRICITY   = .00080248
INCLINATION    = 31.0009
RA_OF_ASC_NODE = 223.7448
ARG_OF_PERICENTER = 294.4021
MEAN_ANOMALY   = 65.5780

EPHEMERIS_TYPE = 0
CLASSIFICATION_TYPE = U
NORAD_CAT_ID   = 57800
ELEMENT_SET_NO = 999
REV_AT_EPOCH   = 13076
BSTAR          = .41363961E-3
MEAN_MOTION_DOT = .7157E-4
MEAN_MOTION_DDOT = 0

CCSDS_OMM_VERS = 2.0
CREATION_DATE  = 
ORIGINATOR     = 

OBJECT_NAME    = ACS3
OBJECT_ID      = 2024-077B
CENTER_NAME    = EARTH
REF_FRAME      = TEME
TIME_SYSTEM    = UTC
MEAN_ELEMENT_THEORY = SGP/SGP4

EPOCH          = 2026-01-22T07:26:17.071584
MEAN_MOTION    = 13.87561852
ECCENTRICITY   = .0052464
INCLINATION    = 97.2359
RA_OF_ASC_NODE = 333.8425
ARG_OF_PERICENTER = 230.8710
MEAN_ANOMALY   = 128.7783

EPHEMERIS_TYPE = 0
CLASSIFICATION_TYPE = U
NORAD_CAT_ID   = 59588
ELEMENT_SET_NO = 999
REV_AT_EPOCH   = 8776
BSTAR          = .26252316E-1
MEAN_MOTION_DOT = .31455E-3
MEAN_MOTION_DDOT = 0

CCSDS_OMM_VERS = 2.0
CREATION_DATE  = 
ORIGINATOR     = 

OBJECT_NAME    = SZ-21 MODULE
OBJECT_ID      = 2025-246C
CENTER_NAME    = EARTH
REF_FRAME      = TEME
TIME_SYSTEM    = UTC
MEAN_ELEMENT_THEORY = SGP/SGP4

EPOCH          = 2026-01-21T14:02:19.429440
MEAN_MOTION    = 15.64987576
ECCENTRICITY   = .00029419
INCLINATION    = 41.4763
RA_OF_ASC_NODE = 132.5466
ARG_OF_PERICENTER = 216.5552
MEAN_ANOMALY   = 143.5088

EPHEMERIS_TYPE = 0
CLASSIFICATION_TYPE = U
NORAD_CAT_ID   = 66515
ELEMENT_SET_NO = 999
REV_AT_EPOCH   = 1068
BSTAR          = .496567E-3
MEAN_MOTION_DOT = .50158E-3
MEAN_MOTION_DDOT = 0

