CZ-2C R/B               
1 54039U 22132E   26022.24460771  .00043152  00000+0  57647-3 0  9990
2 54039  97.2957  24.3052 0016582 262.1185  97.8189 15.57783107183137
GSLV R/B                
1 54149U 22138AN  26021.98299077  .00006467  00000+0  56634-3 0  9990
2 54149  87.3843 181.9943 0020346 326.8568  33.1387 14.96391729176949
XRISM                   
1 57800U 23137A   26022.27324606  .00007157  00000+0  41364-3 0  9998
2 57800  31.0009 223.7448 0008024 294.4021  65.5780 15.10869787130761
ACS3                    
1 59588U 24077B   26022.30991981  .00031455  00000+0  26252-1 0  9992
2 59588  97.2359 333.8425 0052464 230.8710 128.7783 13.87561852 87762
SZ-21 MODULE            
1 66515U 25246C   26021.58494710  .00050158  00000+0  49657-3 0  9993
2 66515  41.4763 132.5466 0002941 216.5552 143.5088 15.64987576 10681
